TROLL                   
1 62658U 25009BB  26068.22522958  .00013174  00000+0  48220-3 0  9994
2 62658  97.3932 150.7169 0001816  59.1850 300.9568 15.28164315118170
STARLINK-35426          
1 66441U 25259V   26067.97791761  .00029387  00000+0  10721-2 0  9993
2 66441  43.0030 278.2576 0002272 278.3776  81.6818 15.27611480 19381
